[{"OBJECT_NAME":"KUIPER-00203","OBJECT_ID":"2026-030K","EPOCH":"2026-03-07T04:00:03.000096","MEAN_MOTION":15.19362672,"ECCENTRICITY":0.0011778,"INCLINATION":51.8837,"RA_OF_ASC_NODE":231.9407,"ARG_OF_PERICENTER":50.6098,"MEAN_ANOMALY":18.3301,"EPHEMERIS_TYPE":0,"CLASSIFICATION_TYPE":"U","NORAD_CAT_ID":67773,"ELEMENT_SET_NO":999,"REV_AT_EPOCH":326,"BSTAR":-0.0859,"MEAN_MOTION_DOT":-0.01669998,"MEAN_MOTION_DDOT":0},{"OBJECT_NAME":"KUIPER-00205","OBJECT_ID":"2026-030L","EPOCH":"2026-03-06T22:55:47.902656","MEAN_MOTION":15.36280709,"ECCENTRICITY":0.0003132,"INCLINATION":51.8807,"RA_OF_ASC_NODE":232.245,"ARG_OF_PERICENTER":13.0131,"MEAN_ANOMALY":347.0936,"EPHEMERIS_TYPE":0,"CLASSIFICATION_TYPE":"U","NORAD_CAT_ID":67774,"ELEMENT_SET_NO":999,"REV_AT_EPOCH":467,"BSTAR":0.0010613,"MEAN_MOTION_DOT":0.00037927,"MEAN_MOTION_DDOT":0},{"OBJECT_NAME":"KUIPER-00208","OBJECT_ID":"2026-030M","EPOCH":"2026-03-06T22:23:31.674336","MEAN_MOTION":15.32339655,"ECCENTRICITY":0.0014815,"INCLINATION":51.8835,"RA_OF_ASC_NODE":232.8389,"ARG_OF_PERICENTER":52.893,"MEAN_ANOMALY":307.3407,"EPHEMERIS_TYPE":0,"CLASSIFICATION_TYPE":"U","NORAD_CAT_ID":67775,"ELEMENT_SET_NO":999,"REV_AT_EPOCH":466,"BSTAR":0.00095301,"MEAN_MOTION_DOT":0.00030045,"MEAN_MOTION_DDOT":0},{"OBJECT_NAME":"KUIPER-00209","OBJECT_ID":"2026-030N","EPOCH":"2026-03-07T04:00:03.000096","MEAN_MOTION":15.30239133,"ECCENTRICITY":0.001293,"INCLINATION":51.8828,"RA_OF_ASC_NODE":231.7998,"ARG_OF_PERICENTER":60.5032,"MEAN_ANOMALY":108.1048,"EPHEMERIS_TYPE":0,"CLASSIFICATION_TYPE":"U","NORAD_CAT_ID":67776,"ELEMENT_SET_NO":999,"REV_AT_EPOCH":409,"BSTAR":-5.2334e-5,"MEAN_MOTION_DOT":-1.926e-5,"MEAN_MOTION_DDOT":0},{"OBJECT_NAME":"KUIPER-00213","OBJECT_ID":"2026-030P","EPOCH":"2026-03-06T22:24:07.266816","MEAN_MOTION":15.3263879,"ECCENTRICITY":0.0015013,"INCLINATION":51.881,"RA_OF_ASC_NODE":232.8321,"ARG_OF_PERICENTER":56.9214,"MEAN_ANOMALY":303.321,"EPHEMERIS_TYPE":0,"CLASSIFICATION_TYPE":"U","NORAD_CAT_ID":67777,"ELEMENT_SET_NO":999,"REV_AT_EPOCH":466,"BSTAR":0.00096939,"MEAN_MOTION_DOT":0.00030865,"MEAN_MOTION_DDOT":0},{"OBJECT_NAME":"KUIPER-00214","OBJECT_ID":"2026-030Q","EPOCH":"2026-03-06T22:46:05.016288","MEAN_MOTION":15.36622279,"ECCENTRICITY":4.51e-5,"INCLINATION":51.8837,"RA_OF_ASC_NODE":232.2077,"ARG_OF_PERICENTER":220.5732,"MEAN_ANOMALY":139.522,"EPHEMERIS_TYPE":0,"CLASSIFICATION_TYPE":"U","NORAD_CAT_ID":67778,"ELEMENT_SET_NO":999,"REV_AT_EPOCH":467,"BSTAR":0.00082942,"MEAN_MOTION_DOT":0.00029851,"MEAN_MOTION_DDOT":0},{"OBJECT_NAME":"KUIPER-00215","OBJECT_ID":"2026-030R","EPOCH":"2026-03-06T23:33:35.165664","MEAN_MOTION":15.34360078,"ECCENTRICITY":0.0010395,"INCLINATION":51.8849,"RA_OF_ASC_NODE":232.4208,"ARG_OF_PERICENTER":51.7018,"MEAN_ANOMALY":308.4901,"EPHEMERIS_TYPE":0,"CLASSIFICATION_TYPE":"U","NORAD_CAT_ID":67779,"ELEMENT_SET_NO":999,"REV_AT_EPOCH":467,"BSTAR":0.0014211,"MEAN_MOTION_DOT":0.00048001,"MEAN_MOTION_DDOT":0},{"OBJECT_NAME":"KUIPER-00218","OBJECT_ID":"2026-030S","EPOCH":"2026-03-06T23:18:44.849952","MEAN_MOTION":15.35061402,"ECCENTRICITY":0.0006747,"INCLINATION":51.8837,"RA_OF_ASC_NODE":232.3524,"ARG_OF_PERICENTER":43.577,"MEAN_ANOMALY":316.5748,"EPHEMERIS_TYPE":0,"CLASSIFICATION_TYPE":"U","NORAD_CAT_ID":67780,"ELEMENT_SET_NO":999,"REV_AT_EPOCH":467,"BSTAR":0.00073658,"MEAN_MOTION_DOT":0.00025159,"MEAN_MOTION_DDOT":0},{"OBJECT_NAME":"KUIPER-00220","OBJECT_ID":"2026-030T","EPOCH":"2026-03-06T23:28:09.562080","MEAN_MOTION":15.34647096,"ECCENTRICITY":0.000893,"INCLINATION":51.8816,"RA_OF_ASC_NODE":232.3879,"ARG_OF_PERICENTER":46.4494,"MEAN_ANOMALY":313.7232,"EPHEMERIS_TYPE":0,"CLASSIFICATION_TYPE":"U","NORAD_CAT_ID":67781,"ELEMENT_SET_NO":999,"REV_AT_EPOCH":467,"BSTAR":0.001067,"MEAN_MOTION_DOT":0.00036204,"MEAN_MOTION_DDOT":0},{"OBJECT_NAME":"KUIPER-00222","OBJECT_ID":"2026-030U","EPOCH":"2026-03-06T22:29:37.190400","MEAN_MOTION":15.32408392,"ECCENTRICITY":0.0017306,"INCLINATION":51.8808,"RA_OF_ASC_NODE":232.8553,"ARG_OF_PERICENTER":56.1294,"MEAN_ANOMALY":304.1334,"EPHEMERIS_TYPE":0,"CLASSIFICATION_TYPE":"U","NORAD_CAT_ID":67782,"ELEMENT_SET_NO":999,"REV_AT_EPOCH":466,"BSTAR":0.0012924,"MEAN_MOTION_DOT":0.00041077,"MEAN_MOTION_DDOT":0},{"OBJECT_NAME":"KUIPER-00223","OBJECT_ID":"2026-030V","EPOCH":"2026-03-06T22:05:00.836448","MEAN_MOTION":15.34005142,"ECCENTRICITY":0.0012597,"INCLINATION":51.8836,"RA_OF_ASC_NODE":232.7547,"ARG_OF_PERICENTER":50.9328,"MEAN_ANOMALY":309.2776,"EPHEMERIS_TYPE":0,"CLASSIFICATION_TYPE":"U","NORAD_CAT_ID":67783,"ELEMENT_SET_NO":999,"REV_AT_EPOCH":466,"BSTAR":0.0011906,"MEAN_MOTION_DOT":0.00039686,"MEAN_MOTION_DDOT":0},{"OBJECT_NAME":"KUIPER-00225","OBJECT_ID":"2026-030W","EPOCH":"2026-03-07T03:45:54.523584","MEAN_MOTION":15.35800484,"ECCENTRICITY":0.00043,"INCLINATION":51.881,"RA_OF_ASC_NODE":231.3415,"ARG_OF_PERICENTER":33.2237,"MEAN_ANOMALY":326.9019,"EPHEMERIS_TYPE":0,"CLASSIFICATION_TYPE":"U","NORAD_CAT_ID":67784,"ELEMENT_SET_NO":999,"REV_AT_EPOCH":470,"BSTAR":0.0010132,"MEAN_MOTION_DOT":0.00035626,"MEAN_MOTION_DDOT":0},{"OBJECT_NAME":"KUIPER-00226","OBJECT_ID":"2026-030X","EPOCH":"2026-03-06T22:47:38.808672","MEAN_MOTION":15.31114331,"ECCENTRICITY":0.0019435,"INCLINATION":51.8808,"RA_OF_ASC_NODE":232.9382,"ARG_OF_PERICENTER":65.5348,"MEAN_ANOMALY":294.766,"EPHEMERIS_TYPE":0,"CLASSIFICATION_TYPE":"U","NORAD_CAT_ID":67785,"ELEMENT_SET_NO":999,"REV_AT_EPOCH":466,"BSTAR":0.00070288,"MEAN_MOTION_DOT":0.00021246,"MEAN_MOTION_DDOT":0},{"OBJECT_NAME":"KUIPER-00259","OBJECT_ID":"2026-030Y","EPOCH":"2026-03-07T04:03:05.181408","MEAN_MOTION":15.34987344,"ECCENTRICITY":0.0007904,"INCLINATION":51.8816,"RA_OF_ASC_NODE":231.4191,"ARG_OF_PERICENTER":39.5307,"MEAN_ANOMALY":320.6254,"EPHEMERIS_TYPE":0,"CLASSIFICATION_TYPE":"U","NORAD_CAT_ID":67786,"ELEMENT_SET_NO":999,"REV_AT_EPOCH":470,"BSTAR":0.0014158,"MEAN_MOTION_DOT":0.00048764,"MEAN_MOTION_DDOT":0},{"OBJECT_NAME":"KUIPER-00260","OBJECT_ID":"2026-030Z","EPOCH":"2026-03-06T22:52:56.201664","MEAN_MOTION":15.36352838,"ECCENTRICITY":0.0001104,"INCLINATION":51.8794,"RA_OF_ASC_NODE":232.2303,"ARG_OF_PERICENTER":52.6644,"MEAN_ANOMALY":307.4442,"EPHEMERIS_TYPE":0,"CLASSIFICATION_TYPE":"U","NORAD_CAT_ID":67787,"ELEMENT_SET_NO":999,"REV_AT_EPOCH":458,"BSTAR":0.00079247,"MEAN_MOTION_DOT":0.00028249,"MEAN_MOTION_DDOT":0},{"OBJECT_NAME":"KUIPER-00262","OBJECT_ID":"2026-030AA","EPOCH":"2026-03-06T22:47:26.685024","MEAN_MOTION":15.36624282,"ECCENTRICITY":3.82e-5,"INCLINATION":51.8805,"RA_OF_ASC_NODE":232.2085,"ARG_OF_PERICENTER":175.9251,"MEAN_ANOMALY":184.1739,"EPHEMERIS_TYPE":0,"CLASSIFICATION_TYPE":"U","NORAD_CAT_ID":67788,"ELEMENT_SET_NO":999,"REV_AT_EPOCH":467,"BSTAR":0.00099921,"MEAN_MOTION_DOT":0.00036073,"MEAN_MOTION_DDOT":0},{"OBJECT_NAME":"KUIPER-00266","OBJECT_ID":"2026-030AB","EPOCH":"2026-03-06T22:54:32.908320","MEAN_MOTION":15.3095509,"ECCENTRICITY":0.0021872,"INCLINATION":51.8801,"RA_OF_ASC_NODE":232.9657,"ARG_OF_PERICENTER":66.5249,"MEAN_ANOMALY":293.8031,"EPHEMERIS_TYPE":0,"CLASSIFICATION_TYPE":"U","NORAD_CAT_ID":67789,"ELEMENT_SET_NO":999,"REV_AT_EPOCH":466,"BSTAR":0.00056412,"MEAN_MOTION_DOT":0.00016907,"MEAN_MOTION_DDOT":0}]
