KUIPER-00203            
1 67773U 26030K   26066.16670139 -.01669998  00000+0 -85900-1 0  9996
2 67773  51.8837 231.9407 0011778  50.6098  18.3301 15.19362672  3261
KUIPER-00205            
1 67774U 26030L   26065.95541554  .00037927  00000+0  10613-2 0  9999
2 67774  51.8807 232.2450 0003132  13.0131 347.0936 15.36280709  4678
KUIPER-00208            
1 67775U 26030M   26065.93300549  .00030045  00000+0  95301-3 0  9997
2 67775  51.8835 232.8389 0014815  52.8930 307.3407 15.32339655  4667
KUIPER-00209            
1 67776U 26030N   26066.16670139 -.00001926  00000+0 -52334-4 0  9997
2 67776  51.8828 231.7998 0012930  60.5032 108.1048 15.30239133  4092
KUIPER-00213            
1 67777U 26030P   26065.93341744  .00030865  00000+0  96939-3 0  9999
2 67777  51.8810 232.8321 0015013  56.9214 303.3210 15.32638790  4669
KUIPER-00214            
1 67778U 26030Q   26065.94866917  .00029851  00000+0  82942-3 0  9997
2 67778  51.8837 232.2077 0000451 220.5732 139.5220 15.36622279  4675
KUIPER-00215            
1 67779U 26030R   26065.98165701  .00048001  00000+0  14211-2 0  9996
2 67779  51.8849 232.4208 0010395  51.7018 308.4901 15.34360078  4673
KUIPER-00218            
1 67780U 26030S   26065.97135243  .00025159  00000+0  73658-3 0  9995
2 67780  51.8837 232.3524 0006747  43.5770 316.5748 15.35061402  4671
KUIPER-00220            
1 67781U 26030T   26065.97788845  .00036204  00000+0  10670-2 0  9995
2 67781  51.8816 232.3879 0008930  46.4494 313.7232 15.34647096  4678
KUIPER-00222            
1 67782U 26030U   26065.93723600  .00041077  00000+0  12924-2 0  9998
2 67782  51.8808 232.8553 0017306  56.1294 304.1334 15.32408392  4665
KUIPER-00223            
1 67783U 26030V   26065.92014857  .00039686  00000+0  11906-2 0  9997
2 67783  51.8836 232.7547 0012597  50.9328 309.2776 15.34005142  4660
KUIPER-00225            
1 67784U 26030W   26066.15688106  .00035626  00000+0  10132-2 0  9998
2 67784  51.8810 231.3415 0004300  33.2237 326.9019 15.35800484  4702
KUIPER-00226            
1 67785U 26030X   26065.94975473  .00021246  00000+0  70288-3 0  9993
2 67785  51.8808 232.9382 0019435  65.5348 294.7660 15.31114331  4660
KUIPER-00259            
1 67786U 26030Y   26066.16880997  .00048764  00000+0  14158-2 0  9992
2 67786  51.8816 231.4191 0007904  39.5307 320.6254 15.34987344  4704
KUIPER-00260            
1 67787U 26030Z   26065.95342826  .00028249  00000+0  79247-3 0  9990
2 67787  51.8794 232.2303 0001104  52.6644 307.4442 15.36352838  4584
KUIPER-00262            
1 67788U 26030AA  26065.94961441  .00036073  00000+0  99921-3 0  9995
2 67788  51.8805 232.2085 0000382 175.9251 184.1739 15.36624282  4679
KUIPER-00266            
1 67789U 26030AB  26065.95454755  .00016907  00000+0  56412-3 0  9994
2 67789  51.8801 232.9657 0021872  66.5249 293.8031 15.30955090  4667
